{
  "type": "FeatureCollection",
  "features": [
    {
      "type": "Feature",
      "properties": {
        "OBJECT_NAME": "BEIJING 1",
        "OBJECT_ID": "2005-043A",
        "EPOCH": "2025-11-29T20:18:05.728032",
        "MEAN_MOTION": 14.63346089,
        "ECCENTRICITY": 0.0014608,
        "INCLINATION": 98.2648,
        "RA_OF_ASC_NODE": 101.3229,
        "ARG_OF_PERICENTER": 180.7736,
        "MEAN_ANOMALY": 179.3446,
        "EPHEMERIS_TYPE": 0,
        "CLASSIFICATION_TYPE": "U",
        "NORAD_CAT_ID": 28890,
        "ELEMENT_SET_NO": 999,
        "REV_AT_EPOCH": 7149,
        "BSTAR": 9.0241e-05,
        "MEAN_MOTION_DOT": 4.18e-06,
        "MEAN_MOTION_DDOT": 0,
        "norad_id": 28890,
        "name": "BEIJING 1",
        "group": "dmc",
        "longitude_deg": NaN,
        "latitude_deg": NaN,
        "alt_km": NaN,
        "orbit_class": "HEO",
        "timestamp": "2025-11-30T04:52:16.837111+00:00"
      },
      "geometry": {
        "type": "Point",
        "coordinates": [
          NaN,
          NaN
        ]
      }
    },
    {
      "type": "Feature",
      "properties": {
        "OBJECT_NAME": "HUANJING 1A (HJ-1A)",
        "OBJECT_ID": "2008-041A",
        "EPOCH": "2025-11-29T21:06:31.574304",
        "MEAN_MOTION": 14.83329057,
        "ECCENTRICITY": 0.0020751,
        "INCLINATION": 97.6534,
        "RA_OF_ASC_NODE": 322.7164,
        "ARG_OF_PERICENTER": 74.0263,
        "MEAN_ANOMALY": 286.3235,
        "EPHEMERIS_TYPE": 0,
        "CLASSIFICATION_TYPE": "U",
        "NORAD_CAT_ID": 33320,
        "ELEMENT_SET_NO": 999,
        "REV_AT_EPOCH": 92885,
        "BSTAR": 0.00018804,
        "MEAN_MOTION_DOT": 1.495e-05,
        "MEAN_MOTION_DDOT": 0,
        "norad_id": 33320,
        "name": "HUANJING 1A (HJ-1A)",
        "group": "dmc",
        "longitude_deg": NaN,
        "latitude_deg": NaN,
        "alt_km": NaN,
        "orbit_class": "HEO",
        "timestamp": "2025-11-30T04:52:16.837773+00:00"
      },
      "geometry": {
        "type": "Point",
        "coordinates": [
          NaN,
          NaN
        ]
      }
    },
    {
      "type": "Feature",
      "properties": {
        "OBJECT_NAME": "HUANJING 1B (HJ-1B)",
        "OBJECT_ID": "2008-041B",
        "EPOCH": "2025-11-29T19:59:48.277824",
        "MEAN_MOTION": 14.82767984,
        "ECCENTRICITY": 0.0038034,
        "INCLINATION": 97.6394,
        "RA_OF_ASC_NODE": 326.4026,
        "ARG_OF_PERICENTER": 116.5699,
        "MEAN_ANOMALY": 243.9421,
        "EPHEMERIS_TYPE": 0,
        "CLASSIFICATION_TYPE": "U",
        "NORAD_CAT_ID": 33321,
        "ELEMENT_SET_NO": 999,
        "REV_AT_EPOCH": 92886,
        "BSTAR": 0.00015489,
        "MEAN_MOTION_DOT": 1.216e-05,
        "MEAN_MOTION_DDOT": 0,
        "norad_id": 33321,
        "name": "HUANJING 1B (HJ-1B)",
        "group": "dmc",
        "longitude_deg": NaN,
        "latitude_deg": NaN,
        "alt_km": NaN,
        "orbit_class": "HEO",
        "timestamp": "2025-11-30T04:52:16.837780+00:00"
      },
      "geometry": {
        "type": "Point",
        "coordinates": [
          NaN,
          NaN
        ]
      }
    },
    {
      "type": "Feature",
      "properties": {
        "OBJECT_NAME": "YAOGAN-4",
        "OBJECT_ID": "2008-061A",
        "EPOCH": "2025-11-29T07:24:21.132288",
        "MEAN_MOTION": 14.82614558,
        "ECCENTRICITY": 0.0014751,
        "INCLINATION": 97.9165,
        "RA_OF_ASC_NODE": 263.5414,
        "ARG_OF_PERICENTER": 7.8855,
        "MEAN_ANOMALY": 352.2587,
        "EPHEMERIS_TYPE": 0,
        "CLASSIFICATION_TYPE": "U",
        "NORAD_CAT_ID": 33446,
        "ELEMENT_SET_NO": 999,
        "REV_AT_EPOCH": 91604,
        "BSTAR": 0.00020133054,
        "MEAN_MOTION_DOT": 1.57e-05,
        "MEAN_MOTION_DDOT": 0,
        "norad_id": 33446,
        "name": "YAOGAN-4",
        "group": "dmc",
        "longitude_deg": NaN,
        "latitude_deg": NaN,
        "alt_km": NaN,
        "orbit_class": "HEO",
        "timestamp": "2025-11-30T04:52:16.837871+00:00"
      },
      "geometry": {
        "type": "Point",
        "coordinates": [
          NaN,
          NaN
        ]
      }
    },
    {
      "type": "Feature",
      "properties": {
        "OBJECT_NAME": "DEIMOS-1",
        "OBJECT_ID": "2009-041A",
        "EPOCH": "2025-11-29T19:47:14.315136",
        "MEAN_MOTION": 14.749204,
        "ECCENTRICITY": 0.0002639,
        "INCLINATION": 97.7145,
        "RA_OF_ASC_NODE": 135.0297,
        "ARG_OF_PERICENTER": 102.7521,
        "MEAN_ANOMALY": 257.3984,
        "EPHEMERIS_TYPE": 0,
        "CLASSIFICATION_TYPE": "U",
        "NORAD_CAT_ID": 35681,
        "ELEMENT_SET_NO": 999,
        "REV_AT_EPOCH": 87749,
        "BSTAR": 0.00011219,
        "MEAN_MOTION_DOT": 7.06e-06,
        "MEAN_MOTION_DDOT": 0,
        "norad_id": 35681,
        "name": "DEIMOS-1",
        "group": "dmc",
        "longitude_deg": NaN,
        "latitude_deg": NaN,
        "alt_km": NaN,
        "orbit_class": "HEO",
        "timestamp": "2025-11-30T04:52:16.837982+00:00"
      },
      "geometry": {
        "type": "Point",
        "coordinates": [
          NaN,
          NaN
        ]
      }
    },
    {
      "type": "Feature",
      "properties": {
        "OBJECT_NAME": "UK-DMC 2",
        "OBJECT_ID": "2009-041C",
        "EPOCH": "2025-11-29T19:51:31.712832",
        "MEAN_MOTION": 14.75575381,
        "ECCENTRICITY": 0.0001241,
        "INCLINATION": 97.8559,
        "RA_OF_ASC_NODE": 109.0959,
        "ARG_OF_PERICENTER": 103.2261,
        "MEAN_ANOMALY": 256.9087,
        "EPHEMERIS_TYPE": 0,
        "CLASSIFICATION_TYPE": "U",
        "NORAD_CAT_ID": 35683,
        "ELEMENT_SET_NO": 999,
        "REV_AT_EPOCH": 87716,
        "BSTAR": 0.00015714,
        "MEAN_MOTION_DOT": 1.022e-05,
        "MEAN_MOTION_DDOT": 0,
        "norad_id": 35683,
        "name": "UK-DMC 2",
        "group": "dmc",
        "longitude_deg": NaN,
        "latitude_deg": NaN,
        "alt_km": NaN,
        "orbit_class": "HEO",
        "timestamp": "2025-11-30T04:52:16.837994+00:00"
      },
      "geometry": {
        "type": "Point",
        "coordinates": [
          NaN,
          NaN
        ]
      }
    },
    {
      "type": "Feature",
      "properties": {
        "OBJECT_NAME": "DMC3-FM1",
        "OBJECT_ID": "2015-032A",
        "EPOCH": "2025-11-29T21:41:08.544768",
        "MEAN_MOTION": 14.85403961,
        "ECCENTRICITY": 0.0005627,
        "INCLINATION": 97.6707,
        "RA_OF_ASC_NODE": 201.5628,
        "ARG_OF_PERICENTER": 5.7089,
        "MEAN_ANOMALY": 354.419,
        "EPHEMERIS_TYPE": 0,
        "CLASSIFICATION_TYPE": "U",
        "NORAD_CAT_ID": 40715,
        "ELEMENT_SET_NO": 999,
        "REV_AT_EPOCH": 56032,
        "BSTAR": 0.00010097,
        "MEAN_MOTION_DOT": 8.18e-06,
        "MEAN_MOTION_DDOT": 0,
        "norad_id": 40715,
        "name": "DMC3-FM1",
        "group": "dmc",
        "longitude_deg": NaN,
        "latitude_deg": NaN,
        "alt_km": NaN,
        "orbit_class": "HEO",
        "timestamp": "2025-11-30T04:52:16.841141+00:00"
      },
      "geometry": {
        "type": "Point",
        "coordinates": [
          NaN,
          NaN
        ]
      }
    },
    {
      "type": "Feature",
      "properties": {
        "OBJECT_NAME": "DMC3-FM2",
        "OBJECT_ID": "2015-032B",
        "EPOCH": "2025-11-29T20:36:33.230016",
        "MEAN_MOTION": 14.85404973,
        "ECCENTRICITY": 0.0006283,
        "INCLINATION": 97.6759,
        "RA_OF_ASC_NODE": 202.9542,
        "ARG_OF_PERICENTER": 9.9232,
        "MEAN_ANOMALY": 350.2107,
        "EPHEMERIS_TYPE": 0,
        "CLASSIFICATION_TYPE": "U",
        "NORAD_CAT_ID": 40716,
        "ELEMENT_SET_NO": 999,
        "REV_AT_EPOCH": 56031,
        "BSTAR": 0.00010058,
        "MEAN_MOTION_DOT": 8.15e-06,
        "MEAN_MOTION_DDOT": 0,
        "norad_id": 40716,
        "name": "DMC3-FM2",
        "group": "dmc",
        "longitude_deg": NaN,
        "latitude_deg": NaN,
        "alt_km": NaN,
        "orbit_class": "HEO",
        "timestamp": "2025-11-30T04:52:16.841149+00:00"
      },
      "geometry": {
        "type": "Point",
        "coordinates": [
          NaN,
          NaN
        ]
      }
    }
  ]
}