BEIJING 1               
1 28890U 05043A   25333.84589963  .00000418  00000+0  90241-4 0  9999
2 28890  98.2648 101.3229 0014608 180.7736 179.3446 14.63346089 71494
HUANJING 1A (HJ-1A)     
1 33320U 08041A   25333.87953211  .00001495  00000+0  18804-3 0  9998
2 33320  97.6534 322.7164 0020751  74.0263 286.3235 14.83329057928852
HUANJING 1B (HJ-1B)     
1 33321U 08041B   25333.83319766  .00001216  00000+0  15489-3 0  9993
2 33321  97.6394 326.4026 0038034 116.5699 243.9421 14.82767984928864
YAOGAN-4                
1 33446U 08061A   25333.30857792  .00001570  00000+0  20133-3 0  9996
2 33446  97.9165 263.5414 0014751   7.8855 352.2587 14.82614558916041
DEIMOS-1                
1 35681U 09041A   25333.82447124  .00000706  00000+0  11219-3 0  9994
2 35681  97.7145 135.0297 0002639 102.7521 257.3984 14.74920400877497
UK-DMC 2                
1 35683U 09041C   25333.82745038  .00001022  00000+0  15714-3 0  9997
2 35683  97.8559 109.0959 0001241 103.2261 256.9087 14.75575381877168
DMC3-FM1                
1 40715U 15032A   25333.90357112  .00000818  00000+0  10097-3 0  9998
2 40715  97.6707 201.5628 0005627   5.7089 354.4190 14.85403961560321
DMC3-FM2                
1 40716U 15032B   25333.85871794  .00000815  00000+0  10058-3 0  9994
2 40716  97.6759 202.9542 0006283   9.9232 350.2107 14.85404973560319
